{
  "type": "FeatureCollection",
  "name": "regions_france",
  "crs": {
    "type": "name",
    "properties": { "name": "urn:ogc:def:crs:OGC:1.3:CRS84" }
  },
  "features": [
    {
      "type": "Feature",
      "geometry": {
        "type": "Polygon",
        "coordinates": [[
          [1.4, 48.1], [3.5, 48.1], [3.5, 49.2], [1.4, 49.2], [1.4, 48.1]
        ]]
      },
      "properties": {
        "nom": "Île-de-France",
        "chef_lieu": "Paris",
        "population": 12278251,
        "superficie_km2": 12012,
        "nb_departements": 8
      }
    },
    {
      "type": "Feature",
      "geometry": {
        "type": "Polygon",
        "coordinates": [[
          [-2.0, 47.0], [0.5, 47.0], [0.5, 48.8], [-2.0, 48.8], [-2.0, 47.0]
        ]]
      },
      "properties": {
        "nom": "Pays de la Loire",
        "chef_lieu": "Nantes",
        "population": 3801797,
        "superficie_km2": 32082,
        "nb_departements": 5
      }
    },
    {
      "type": "Feature",
      "geometry": {
        "type": "Polygon",
        "coordinates": [[
          [-5.2, 47.3], [-1.0, 47.3], [-1.0, 48.9], [-5.2, 48.9], [-5.2, 47.3]
        ]]
      },
      "properties": {
        "nom": "Bretagne",
        "chef_lieu": "Rennes",
        "population": 3373000,
        "superficie_km2": 27208,
        "nb_departements": 4
      }
    },
    {
      "type": "Feature",
      "geometry": {
        "type": "Polygon",
        "coordinates": [[
          [-1.8, 43.0], [3.3, 43.0], [3.3, 46.5], [-1.8, 46.5], [-1.8, 43.0]
        ]]
      },
      "properties": {
        "nom": "Nouvelle-Aquitaine",
        "chef_lieu": "Bordeaux",
        "population": 6109000,
        "superficie_km2": 84061,
        "nb_departements": 12
      }
    },
    {
      "type": "Feature",
      "geometry": {
        "type": "Polygon",
        "coordinates": [[
          [1.5, 42.4], [4.9, 42.4], [4.9, 44.9], [1.5, 44.9], [1.5, 42.4]
        ]]
      },
      "properties": {
        "nom": "Occitanie",
        "chef_lieu": "Toulouse",
        "population": 5924000,
        "superficie_km2": 72724,
        "nb_departements": 13
      }
    },
    {
      "type": "Feature",
      "geometry": {
        "type": "Polygon",
        "coordinates": [[
          [3.7, 43.2], [7.7, 43.2], [7.7, 45.1], [3.7, 45.1], [3.7, 43.2]
        ]]
      },
      "properties": {
        "nom": "Provence-Alpes-Côte d'Azur",
        "chef_lieu": "Marseille",
        "population": 5059000,
        "superficie_km2": 31400,
        "nb_departements": 6
      }
    },
    {
      "type": "Feature",
      "geometry": {
        "type": "Polygon",
        "coordinates": [[
          [2.0, 49.3], [4.3, 49.3], [4.3, 51.1], [2.0, 51.1], [2.0, 49.3]
        ]]
      },
      "properties": {
        "nom": "Hauts-de-France",
        "chef_lieu": "Lille",
        "population": 6009000,
        "superficie_km2": 31813,
        "nb_departements": 5
      }
    },
    {
      "type": "Feature",
      "geometry": {
        "type": "Polygon",
        "coordinates": [[
          [3.8, 44.3], [7.3, 44.3], [7.3, 46.5], [3.8, 46.5], [3.8, 44.3]
        ]]
      },
      "properties": {
        "nom": "Auvergne-Rhône-Alpes",
        "chef_lieu": "Lyon",
        "population": 8092000,
        "superficie_km2": 69711,
        "nb_departements": 12
      }
    }
  ]
}
