{
  "type": "FeatureCollection",
  "name": "axes_routiers",
  "crs": {
    "type": "name",
    "properties": { "name": "urn:ogc:def:crs:OGC:1.3:CRS84" }
  },
  "features": [
    {
      "type": "Feature",
      "geometry": {
        "type": "LineString",
        "coordinates": [
          [2.3488, 48.8534],
          [1.4442, 43.6047],
          [-0.5792, 44.8378]
        ]
      },
      "properties": {
        "nom": "A10 / A63",
        "type": "Autoroute",
        "longueur_km": 580,
        "vitesse_max": 130,
        "gestionnaire": "Vinci Autoroutes"
      }
    },
    {
      "type": "Feature",
      "geometry": {
        "type": "LineString",
        "coordinates": [
          [2.3488, 48.8534],
          [4.8357, 45.7640],
          [5.3698, 43.2965]
        ]
      },
      "properties": {
        "nom": "A7 - Autoroute du Soleil",
        "type": "Autoroute",
        "longueur_km": 712,
        "vitesse_max": 130,
        "gestionnaire": "APRR"
      }
    },
    {
      "type": "Feature",
      "geometry": {
        "type": "LineString",
        "coordinates": [
          [2.3488, 48.8534],
          [3.0573, 50.6292]
        ]
      },
      "properties": {
        "nom": "A1 - Autoroute du Nord",
        "type": "Autoroute",
        "longueur_km": 225,
        "vitesse_max": 130,
        "gestionnaire": "Sanef"
      }
    },
    {
      "type": "Feature",
      "geometry": {
        "type": "LineString",
        "coordinates": [
          [2.3488, 48.8534],
          [-1.5534, 47.2184],
          [-1.6789, 48.1147]
        ]
      },
      "properties": {
        "nom": "A11 / A81",
        "type": "Autoroute",
        "longueur_km": 390,
        "vitesse_max": 130,
        "gestionnaire": "ASF"
      }
    },
    {
      "type": "Feature",
      "geometry": {
        "type": "LineString",
        "coordinates": [
          [1.4442, 43.6047],
          [3.8767, 43.6119],
          [5.3698, 43.2965],
          [7.2661, 43.7102]
        ]
      },
      "properties": {
        "nom": "A9 / A8 - La Languedocienne",
        "type": "Autoroute",
        "longueur_km": 565,
        "vitesse_max": 130,
        "gestionnaire": "Vinci Autoroutes"
      }
    },
    {
      "type": "Feature",
      "geometry": {
        "type": "LineString",
        "coordinates": [
          [4.8357, 45.7640],
          [5.7248, 45.1885],
          [7.2661, 43.7102]
        ]
      },
      "properties": {
        "nom": "A43 / A41",
        "type": "Autoroute",
        "longueur_km": 298,
        "vitesse_max": 130,
        "gestionnaire": "ATMB"
      }
    }
  ]
}
