{
  "type": "FeatureCollection",
  "name": "villes_principales",
  "crs": {
    "type": "name",
    "properties": { "name": "urn:ogc:def:crs:OGC:1.3:CRS84" }
  },
  "features": [
    {
      "type": "Feature",
      "geometry": { "type": "Point", "coordinates": [2.3488, 48.8534] },
      "properties": {
        "nom": "Paris",
        "population": 2161000,
        "code_postal": "75000",
        "region": "Île-de-France",
        "superficie_km2": 105.4
      }
    },
    {
      "type": "Feature",
      "geometry": { "type": "Point", "coordinates": [-0.5792, 44.8378] },
      "properties": {
        "nom": "Bordeaux",
        "population": 257068,
        "code_postal": "33000",
        "region": "Nouvelle-Aquitaine",
        "superficie_km2": 49.4
      }
    },
    {
      "type": "Feature",
      "geometry": { "type": "Point", "coordinates": [5.3698, 43.2965] },
      "properties": {
        "nom": "Marseille",
        "population": 868277,
        "code_postal": "13000",
        "region": "Provence-Alpes-Côte d'Azur",
        "superficie_km2": 240.6
      }
    },
    {
      "type": "Feature",
      "geometry": { "type": "Point", "coordinates": [4.8357, 45.7640] },
      "properties": {
        "nom": "Lyon",
        "population": 522228,
        "code_postal": "69000",
        "region": "Auvergne-Rhône-Alpes",
        "superficie_km2": 47.9
      }
    },
    {
      "type": "Feature",
      "geometry": { "type": "Point", "coordinates": [1.4442, 43.6047] },
      "properties": {
        "nom": "Toulouse",
        "population": 486828,
        "code_postal": "31000",
        "region": "Occitanie",
        "superficie_km2": 118.3
      }
    },
    {
      "type": "Feature",
      "geometry": { "type": "Point", "coordinates": [3.8767, 43.6119] },
      "properties": {
        "nom": "Montpellier",
        "population": 295542,
        "code_postal": "34000",
        "region": "Occitanie",
        "superficie_km2": 57.0
      }
    },
    {
      "type": "Feature",
      "geometry": { "type": "Point", "coordinates": [7.2661, 43.7102] },
      "properties": {
        "nom": "Nice",
        "population": 342669,
        "code_postal": "06000",
        "region": "Provence-Alpes-Côte d'Azur",
        "superficie_km2": 71.9
      }
    },
    {
      "type": "Feature",
      "geometry": { "type": "Point", "coordinates": [-1.5534, 47.2184] },
      "properties": {
        "nom": "Nantes",
        "population": 320732,
        "code_postal": "44000",
        "region": "Pays de la Loire",
        "superficie_km2": 65.2
      }
    },
    {
      "type": "Feature",
      "geometry": { "type": "Point", "coordinates": [-1.6789, 48.1147] },
      "properties": {
        "nom": "Rennes",
        "population": 220488,
        "code_postal": "35000",
        "region": "Bretagne",
        "superficie_km2": 50.4
      }
    },
    {
      "type": "Feature",
      "geometry": { "type": "Point", "coordinates": [3.0573, 50.6292] },
      "properties": {
        "nom": "Lille",
        "population": 234475,
        "code_postal": "59000",
        "region": "Hauts-de-France",
        "superficie_km2": 34.8
      }
    },
    {
      "type": "Feature",
      "geometry": { "type": "Point", "coordinates": [-1.3528, 43.3028] },
      "properties": {
        "nom": "Bayonne",
        "population": 52318,
        "code_postal": "64100",
        "region": "Nouvelle-Aquitaine",
        "superficie_km2": 21.9
      }
    },
    {
      "type": "Feature",
      "geometry": { "type": "Point", "coordinates": [5.7248, 45.1885] },
      "properties": {
        "nom": "Grenoble",
        "population": 158198,
        "code_postal": "38000",
        "region": "Auvergne-Rhône-Alpes",
        "superficie_km2": 18.1
      }
    }
  ]
}
